STARLINK-30554          
1 58048U 23156W   26068.55091527  .00001869  00000+0  75245-4 0  9998
2 58048  53.1575 168.6728 0001080 101.2565 258.8557 15.30186563134961
NUSHSAT1                
1 63211U 25052B   26068.64700493  .00023034  00000+0  74857-3 0  9997
2 63211  97.4095 325.7239 0005501  84.7512 275.4357 15.31903202 54882
